BEIDOU-3 M1             
1 43001U 17069A   26052.15069591  .00000000  00000+0  00000+0 0  9990
2 43001  56.5894  66.9060 0012077 307.5360  52.3997  1.86231168 56445
BEIDOU-3 M2             
1 43002U 17069B   26052.08917108  .00000001  00000+0  00000+0 0  9990
2 43002  56.5885  66.9440 0009237 326.8292  33.1588  1.86230925 56432
BEIDOU-3 M7             
1 43107U 18003A   26051.29438222 -.00000035  00000+0  00000+0 0  9990
2 43107  54.4318 306.3937 0004355  68.0687 292.0417  1.86232594 55178
BEIDOU-3 M8             
1 43108U 18003B   26051.23984484 -.00000035  00000+0  00000+0 0  9991
2 43108  54.4246 306.3780 0003443 292.2478  67.7801  1.86231124 55184
BEIDOU-3 M4             
1 43207U 18018A   26051.68200615  .00000003  00000+0  00000+0 0  9997
2 43207  56.5479  66.9896 0006392 349.3674  10.6671  1.86231107 54575
BEIDOU-3 M3             
1 43208U 18018B   26051.74845793  .00000002  00000+0  00000+0 0  9996
2 43208  56.5473  66.9913 0009666 317.4210  42.5517  1.86231270 54573
BEIDOU-3 M9             
1 43245U 18029A   26051.42852082 -.00000032  00000+0  00000+0 0  9997
2 43245  54.2994 304.0347 0000959 353.1923   6.8715  1.86228241 53721
BEIDOU-3 M10            
1 43246U 18029B   26051.36345693 -.00000031  00000+0  00000+0 0  9995
2 43246  54.2968 304.0639 0005093  19.2590 340.8255  1.86229227 53704
BEIDOU-2 IGSO-7         
1 43539U 18057A   26051.12215648 -.00000132  00000+0  00000+0 0  9993
2 43539  55.1868 164.0838 0099653 236.4354 265.4874  1.00286562 27957
BEIDOU-3 M5             
1 43581U 18062A   26051.05065507  .00000053  00000+0  00000+0 0  9996
2 43581  54.0898 186.2860 0001854 319.8735  40.0719  1.86228671 51459
BEIDOU-3 M6             
1 43582U 18062B   26041.78521569  .00000045  00000+0  00000+0 0  9992
2 43582  54.0892 186.5899 0006575  42.1422 317.8719  1.86227674 51281
BEIDOU-3 M12            
1 43602U 18067A   26051.38888858  .00000054  00000+0  00000+0 0  9994
2 43602  54.1841 185.0003 0008805  41.4640 318.5648  1.86227913 50949
BEIDOU-3 M11            
1 43603U 18067B   26050.98663560  .00000052  00000+0  00000+0 0  9999
2 43603  54.1815 184.9778 0005174  36.2676 323.7275  1.86227334 50968
BEIDOU-3 M13            
1 43622U 18072A   26051.47961881  .00000003  00000+0  00000+0 0  9994
2 43622  56.5210  66.5104 0008647 304.7282  55.2385  1.86231168 50482
BEIDOU-3 M14            
1 43623U 18072B   26051.34507920  .00000004  00000+0  00000+0 0  9992
2 43623  56.5227  66.5088 0006004 325.7575  34.2526  1.86231202 50477
BEIDOU-3 M16            
1 43647U 18078A   26050.42820087 -.00000029  00000+0  00000+0 0  9992
2 43647  54.1961 304.1163 0008356  28.9730 331.1410  1.86232253 49964
BEIDOU-3 M15            
1 43648U 18078B   26051.09442302 -.00000031  00000+0  00000+0 0  9990
2 43648  54.1915 304.0942 0005142  33.5022 326.5963  1.86232351 49997
