[{"OBJECT_NAME":"BEIDOU-3 M1 (C19)","OBJECT_ID":"2017-069A","EPOCH":"2026-02-21T03:37:00.126624","MEAN_MOTION":1.86231168,"ECCENTRICITY":0.00120775,"INCLINATION":56.5894,"RA_OF_ASC_NODE":66.906,"ARG_OF_PERICENTER":307.536,"MEAN_ANOMALY":52.3997,"EPHEMERIS_TYPE":0,"CLASSIFICATION_TYPE":"U","NORAD_CAT_ID":43001,"ELEMENT_SET_NO":999,"REV_AT_EPOCH":5644,"BSTAR":0,"MEAN_MOTION_DOT":0,"MEAN_MOTION_DDOT":0},{"OBJECT_NAME":"BEIDOU-3 M2 (C20)","OBJECT_ID":"2017-069B","EPOCH":"2026-02-21T02:08:24.381312","MEAN_MOTION":1.86230925,"ECCENTRICITY":0.00092373,"INCLINATION":56.5885,"RA_OF_ASC_NODE":66.944,"ARG_OF_PERICENTER":326.8292,"MEAN_ANOMALY":33.1588,"EPHEMERIS_TYPE":0,"CLASSIFICATION_TYPE":"U","NORAD_CAT_ID":43002,"ELEMENT_SET_NO":999,"REV_AT_EPOCH":5643,"BSTAR":0,"MEAN_MOTION_DOT":1e-08,"MEAN_MOTION_DDOT":0},{"OBJECT_NAME":"BEIDOU-3 M7 (C27)","OBJECT_ID":"2018-003A","EPOCH":"2026-02-20T07:03:54.623808","MEAN_MOTION":1.86232594,"ECCENTRICITY":0.00043557,"INCLINATION":54.4318,"RA_OF_ASC_NODE":306.3937,"ARG_OF_PERICENTER":68.0687,"MEAN_ANOMALY":292.0417,"EPHEMERIS_TYPE":0,"CLASSIFICATION_TYPE":"U","NORAD_CAT_ID":43107,"ELEMENT_SET_NO":999,"REV_AT_EPOCH":5517,"BSTAR":0,"MEAN_MOTION_DOT":-3.5e-07,"MEAN_MOTION_DDOT":0},{"OBJECT_NAME":"BEIDOU-3 M8 (C28)","OBJECT_ID":"2018-003B","EPOCH":"2026-02-20T05:45:22.594176","MEAN_MOTION":1.86231124,"ECCENTRICITY":0.00034438,"INCLINATION":54.4246,"RA_OF_ASC_NODE":306.378,"ARG_OF_PERICENTER":292.2478,"MEAN_ANOMALY":67.7801,"EPHEMERIS_TYPE":0,"CLASSIFICATION_TYPE":"U","NORAD_CAT_ID":43108,"ELEMENT_SET_NO":999,"REV_AT_EPOCH":5518,"BSTAR":0,"MEAN_MOTION_DOT":-3.5e-07,"MEAN_MOTION_DDOT":0},{"OBJECT_NAME":"BEIDOU-3 M4 (C22)","OBJECT_ID":"2018-018A","EPOCH":"2026-02-20T16:22:05.331360","MEAN_MOTION":1.86231107,"ECCENTRICITY":0.00063925,"INCLINATION":56.5479,"RA_OF_ASC_NODE":66.9896,"ARG_OF_PERICENTER":349.3674,"MEAN_ANOMALY":10.6671,"EPHEMERIS_TYPE":0,"CLASSIFICATION_TYPE":"U","NORAD_CAT_ID":43207,"ELEMENT_SET_NO":999,"REV_AT_EPOCH":5457,"BSTAR":0,"MEAN_MOTION_DOT":3e-08,"MEAN_MOTION_DDOT":0},{"OBJECT_NAME":"BEIDOU-3 M3 (C21)","OBJECT_ID":"2018-018B","EPOCH":"2026-02-20T17:57:46.765152","MEAN_MOTION":1.8623127,"ECCENTRICITY":0.00096665,"INCLINATION":56.5473,"RA_OF_ASC_NODE":66.9913,"ARG_OF_PERICENTER":317.421,"MEAN_ANOMALY":42.5517,"EPHEMERIS_TYPE":0,"CLASSIFICATION_TYPE":"U","NORAD_CAT_ID":43208,"ELEMENT_SET_NO":999,"REV_AT_EPOCH":5457,"BSTAR":0,"MEAN_MOTION_DOT":2e-08,"MEAN_MOTION_DDOT":0},{"OBJECT_NAME":"BEIDOU-3 M9 (C29)","OBJECT_ID":"2018-029A","EPOCH":"2026-02-20T10:17:04.198848","MEAN_MOTION":1.86228241,"ECCENTRICITY":9.595e-05,"INCLINATION":54.2994,"RA_OF_ASC_NODE":304.0347,"ARG_OF_PERICENTER":353.1923,"MEAN_ANOMALY":6.8715,"EPHEMERIS_TYPE":0,"CLASSIFICATION_TYPE":"U","NORAD_CAT_ID":43245,"ELEMENT_SET_NO":999,"REV_AT_EPOCH":5372,"BSTAR":0,"MEAN_MOTION_DOT":-3.2e-07,"MEAN_MOTION_DDOT":0},{"OBJECT_NAME":"BEIDOU-3 M10 (C30)","OBJECT_ID":"2018-029B","EPOCH":"2026-02-20T08:43:22.678752","MEAN_MOTION":1.86229227,"ECCENTRICITY":0.0005093,"INCLINATION":54.2968,"RA_OF_ASC_NODE":304.0639,"ARG_OF_PERICENTER":19.259,"MEAN_ANOMALY":340.8255,"EPHEMERIS_TYPE":0,"CLASSIFICATION_TYPE":"U","NORAD_CAT_ID":43246,"ELEMENT_SET_NO":999,"REV_AT_EPOCH":5370,"BSTAR":0,"MEAN_MOTION_DOT":-3.1e-07,"MEAN_MOTION_DDOT":0},{"OBJECT_NAME":"BEIDOU-2 IGSO-7 (C16)","OBJECT_ID":"2018-057A","EPOCH":"2026-02-20T02:55:54.319872","MEAN_MOTION":1.00286562,"ECCENTRICITY":0.0099653,"INCLINATION":55.1868,"RA_OF_ASC_NODE":164.0838,"ARG_OF_PERICENTER":236.4354,"MEAN_ANOMALY":265.4874,"EPHEMERIS_TYPE":0,"CLASSIFICATION_TYPE":"U","NORAD_CAT_ID":43539,"ELEMENT_SET_NO":999,"REV_AT_EPOCH":2795,"BSTAR":0,"MEAN_MOTION_DOT":-1.32e-06,"MEAN_MOTION_DDOT":0},{"OBJECT_NAME":"BEIDOU-3 M5 (C23)","OBJECT_ID":"2018-062A","EPOCH":"2026-02-20T01:12:56.598048","MEAN_MOTION":1.86228671,"ECCENTRICITY":0.0001854,"INCLINATION":54.0898,"RA_OF_ASC_NODE":186.286,"ARG_OF_PERICENTER":319.8735,"MEAN_ANOMALY":40.0719,"EPHEMERIS_TYPE":0,"CLASSIFICATION_TYPE":"U","NORAD_CAT_ID":43581,"ELEMENT_SET_NO":999,"REV_AT_EPOCH":5145,"BSTAR":0,"MEAN_MOTION_DOT":5.3e-07,"MEAN_MOTION_DDOT":0},{"OBJECT_NAME":"BEIDOU-3 M6 (C24)","OBJECT_ID":"2018-062B","EPOCH":"2026-02-10T18:50:42.635616","MEAN_MOTION":1.86227674,"ECCENTRICITY":0.00065757,"INCLINATION":54.0892,"RA_OF_ASC_NODE":186.5899,"ARG_OF_PERICENTER":42.1422,"MEAN_ANOMALY":317.8719,"EPHEMERIS_TYPE":0,"CLASSIFICATION_TYPE":"U","NORAD_CAT_ID":43582,"ELEMENT_SET_NO":999,"REV_AT_EPOCH":5128,"BSTAR":0,"MEAN_MOTION_DOT":4.5e-07,"MEAN_MOTION_DDOT":0},{"OBJECT_NAME":"BEIDOU-3 M12 (C26)","OBJECT_ID":"2018-067A","EPOCH":"2026-02-20T09:19:59.973312","MEAN_MOTION":1.86227913,"ECCENTRICITY":0.00088053,"INCLINATION":54.1841,"RA_OF_ASC_NODE":185.0003,"ARG_OF_PERICENTER":41.464,"MEAN_ANOMALY":318.5648,"EPHEMERIS_TYPE":0,"CLASSIFICATION_TYPE":"U","NORAD_CAT_ID":43602,"ELEMENT_SET_NO":999,"REV_AT_EPOCH":5094,"BSTAR":0,"MEAN_MOTION_DOT":5.4e-07,"MEAN_MOTION_DDOT":0},{"OBJECT_NAME":"BEIDOU-3 M11 (C25)","OBJECT_ID":"2018-067B","EPOCH":"2026-02-19T23:40:45.315840","MEAN_MOTION":1.86227334,"ECCENTRICITY":0.00051741,"INCLINATION":54.1815,"RA_OF_ASC_NODE":184.9778,"ARG_OF_PERICENTER":36.2676,"MEAN_ANOMALY":323.7275,"EPHEMERIS_TYPE":0,"CLASSIFICATION_TYPE":"U","NORAD_CAT_ID":43603,"ELEMENT_SET_NO":999,"REV_AT_EPOCH":5096,"BSTAR":0,"MEAN_MOTION_DOT":5.2e-07,"MEAN_MOTION_DDOT":0},{"OBJECT_NAME":"BEIDOU-3 M13 (C32)","OBJECT_ID":"2018-072A","EPOCH":"2026-02-20T11:30:39.065184","MEAN_MOTION":1.86231168,"ECCENTRICITY":0.00086472,"INCLINATION":56.521,"RA_OF_ASC_NODE":66.5104,"ARG_OF_PERICENTER":304.7282,"MEAN_ANOMALY":55.2385,"EPHEMERIS_TYPE":0,"CLASSIFICATION_TYPE":"U","NORAD_CAT_ID":43622,"ELEMENT_SET_NO":999,"REV_AT_EPOCH":5048,"BSTAR":0,"MEAN_MOTION_DOT":3e-08,"MEAN_MOTION_DDOT":0},{"OBJECT_NAME":"BEIDOU-3 M14 (C33)","OBJECT_ID":"2018-072B","EPOCH":"2026-02-20T08:16:54.842880","MEAN_MOTION":1.86231202,"ECCENTRICITY":0.0006004,"INCLINATION":56.5227,"RA_OF_ASC_NODE":66.5088,"ARG_OF_PERICENTER":325.7575,"MEAN_ANOMALY":34.2526,"EPHEMERIS_TYPE":0,"CLASSIFICATION_TYPE":"U","NORAD_CAT_ID":43623,"ELEMENT_SET_NO":999,"REV_AT_EPOCH":5047,"BSTAR":0,"MEAN_MOTION_DOT":4e-08,"MEAN_MOTION_DDOT":0},{"OBJECT_NAME":"BEIDOU-3 M16 (C35)","OBJECT_ID":"2018-078A","EPOCH":"2026-02-19T10:16:36.555168","MEAN_MOTION":1.86232253,"ECCENTRICITY":0.00083562,"INCLINATION":54.1961,"RA_OF_ASC_NODE":304.1163,"ARG_OF_PERICENTER":28.973,"MEAN_ANOMALY":331.141,"EPHEMERIS_TYPE":0,"CLASSIFICATION_TYPE":"U","NORAD_CAT_ID":43647,"ELEMENT_SET_NO":999,"REV_AT_EPOCH":4996,"BSTAR":0,"MEAN_MOTION_DOT":-2.9e-07,"MEAN_MOTION_DDOT":0},{"OBJECT_NAME":"BEIDOU-3 M15 (C34)","OBJECT_ID":"2018-078B","EPOCH":"2026-02-20T02:15:58.148928","MEAN_MOTION":1.86232351,"ECCENTRICITY":0.00051424,"INCLINATION":54.1915,"RA_OF_ASC_NODE":304.0942,"ARG_OF_PERICENTER":33.5022,"MEAN_ANOMALY":326.5963,"EPHEMERIS_TYPE":0,"CLASSIFICATION_TYPE":"U","NORAD_CAT_ID":43648,"ELEMENT_SET_NO":999,"REV_AT_EPOCH":4999,"BSTAR":0,"MEAN_MOTION_DOT":-3.1e-07,"MEAN_MOTION_DDOT":0}]